<?xml version="1.0" encoding="UTF-8"?>
<kml xmlns="http://www.opengis.net/kml/2.2">
  <Document>
    <name>Speedman - wisselzone looproutes</name>
    <description/>
    <Style id="icon-1899-424242-normal">
      <IconStyle>
        <color>ff424242</color>
        <scale>1</scale>
        <Icon>
          <href>https://www.gstatic.com/mapspro/images/stock/503-wht-blank_maps.png</href>
        </Icon>
        <hotSpot x="32" xunits="pixels" y="64" yunits="insetPixels"/>
      </IconStyle>
      <LabelStyle>
        <scale>0</scale>
      </LabelStyle>
    </Style>
    <Style id="icon-1899-424242-highlight">
      <IconStyle>
        <color>ff424242</color>
        <scale>1</scale>
        <Icon>
          <href>https://www.gstatic.com/mapspro/images/stock/503-wht-blank_maps.png</href>
        </Icon>
        <hotSpot x="32" xunits="pixels" y="64" yunits="insetPixels"/>
      </IconStyle>
      <LabelStyle>
        <scale>1</scale>
      </LabelStyle>
    </Style>
    <StyleMap id="icon-1899-424242">
      <Pair>
        <key>normal</key>
        <styleUrl>#icon-1899-424242-normal</styleUrl>
      </Pair>
      <Pair>
        <key>highlight</key>
        <styleUrl>#icon-1899-424242-highlight</styleUrl>
      </Pair>
    </StyleMap>
    <Style id="line-01579B-2938-normal">
      <LineStyle>
        <color>ff9b5701</color>
        <width>2.938</width>
      </LineStyle>
    </Style>
    <Style id="line-01579B-2938-highlight">
      <LineStyle>
        <color>ff9b5701</color>
        <width>4.407</width>
      </LineStyle>
    </Style>
    <StyleMap id="line-01579B-2938">
      <Pair>
        <key>normal</key>
        <styleUrl>#line-01579B-2938-normal</styleUrl>
      </Pair>
      <Pair>
        <key>highlight</key>
        <styleUrl>#line-01579B-2938-highlight</styleUrl>
      </Pair>
    </StyleMap>
    <Style id="line-0288D1-3000-normal">
      <LineStyle>
        <color>ffd18802</color>
        <width>3</width>
      </LineStyle>
    </Style>
    <Style id="line-0288D1-3000-highlight">
      <LineStyle>
        <color>ffd18802</color>
        <width>4.5</width>
      </LineStyle>
    </Style>
    <StyleMap id="line-0288D1-3000">
      <Pair>
        <key>normal</key>
        <styleUrl>#line-0288D1-3000-normal</styleUrl>
      </Pair>
      <Pair>
        <key>highlight</key>
        <styleUrl>#line-0288D1-3000-highlight</styleUrl>
      </Pair>
    </StyleMap>
    <Style id="line-097138-3000-normal">
      <LineStyle>
        <color>ff387109</color>
        <width>3</width>
      </LineStyle>
    </Style>
    <Style id="line-097138-3000-highlight">
      <LineStyle>
        <color>ff387109</color>
        <width>4.5</width>
      </LineStyle>
    </Style>
    <StyleMap id="line-097138-3000">
      <Pair>
        <key>normal</key>
        <styleUrl>#line-097138-3000-normal</styleUrl>
      </Pair>
      <Pair>
        <key>highlight</key>
        <styleUrl>#line-097138-3000-highlight</styleUrl>
      </Pair>
    </StyleMap>
    <Style id="line-097138-3131-normal">
      <LineStyle>
        <color>ff387109</color>
        <width>3.131</width>
      </LineStyle>
    </Style>
    <Style id="line-097138-3131-highlight">
      <LineStyle>
        <color>ff387109</color>
        <width>4.6965</width>
      </LineStyle>
    </Style>
    <StyleMap id="line-097138-3131">
      <Pair>
        <key>normal</key>
        <styleUrl>#line-097138-3131-normal</styleUrl>
      </Pair>
      <Pair>
        <key>highlight</key>
        <styleUrl>#line-097138-3131-highlight</styleUrl>
      </Pair>
    </StyleMap>
    <Style id="line-097138-3325-normal">
      <LineStyle>
        <color>ff387109</color>
        <width>3.325</width>
      </LineStyle>
    </Style>
    <Style id="line-097138-3325-highlight">
      <LineStyle>
        <color>ff387109</color>
        <width>4.9875</width>
      </LineStyle>
    </Style>
    <StyleMap id="line-097138-3325">
      <Pair>
        <key>normal</key>
        <styleUrl>#line-097138-3325-normal</styleUrl>
      </Pair>
      <Pair>
        <key>highlight</key>
        <styleUrl>#line-097138-3325-highlight</styleUrl>
      </Pair>
    </StyleMap>
    <Style id="line-A52714-3000-normal">
      <LineStyle>
        <color>ff1427a5</color>
        <width>3</width>
      </LineStyle>
    </Style>
    <Style id="line-A52714-3000-highlight">
      <LineStyle>
        <color>ff1427a5</color>
        <width>4.5</width>
      </LineStyle>
    </Style>
    <StyleMap id="line-A52714-3000">
      <Pair>
        <key>normal</key>
        <styleUrl>#line-A52714-3000-normal</styleUrl>
      </Pair>
      <Pair>
        <key>highlight</key>
        <styleUrl>#line-A52714-3000-highlight</styleUrl>
      </Pair>
    </StyleMap>
    <Style id="line-E65100-3000-normal">
      <LineStyle>
        <color>ff0051e6</color>
        <width>3</width>
      </LineStyle>
    </Style>
    <Style id="line-E65100-3000-highlight">
      <LineStyle>
        <color>ff0051e6</color>
        <width>4.5</width>
      </LineStyle>
    </Style>
    <StyleMap id="line-E65100-3000">
      <Pair>
        <key>normal</key>
        <styleUrl>#line-E65100-3000-normal</styleUrl>
      </Pair>
      <Pair>
        <key>highlight</key>
        <styleUrl>#line-E65100-3000-highlight</styleUrl>
      </Pair>
    </StyleMap>
    <Style id="line-FFFFFF-2938-normal">
      <LineStyle>
        <color>ffffffff</color>
        <width>2.938</width>
      </LineStyle>
    </Style>
    <Style id="line-FFFFFF-2938-highlight">
      <LineStyle>
        <color>ffffffff</color>
        <width>4.407</width>
      </LineStyle>
    </Style>
    <StyleMap id="line-FFFFFF-2938">
      <Pair>
        <key>normal</key>
        <styleUrl>#line-FFFFFF-2938-normal</styleUrl>
      </Pair>
      <Pair>
        <key>highlight</key>
        <styleUrl>#line-FFFFFF-2938-highlight</styleUrl>
      </Pair>
    </StyleMap>
    <Style id="line-FFFFFF-3000-normal">
      <LineStyle>
        <color>ffffffff</color>
        <width>3</width>
      </LineStyle>
    </Style>
    <Style id="line-FFFFFF-3000-highlight">
      <LineStyle>
        <color>ffffffff</color>
        <width>4.5</width>
      </LineStyle>
    </Style>
    <StyleMap id="line-FFFFFF-3000">
      <Pair>
        <key>normal</key>
        <styleUrl>#line-FFFFFF-3000-normal</styleUrl>
      </Pair>
      <Pair>
        <key>highlight</key>
        <styleUrl>#line-FFFFFF-3000-highlight</styleUrl>
      </Pair>
    </StyleMap>
    <Style id="line-FFFFFF-3131-normal">
      <LineStyle>
        <color>ffffffff</color>
        <width>3.131</width>
      </LineStyle>
    </Style>
    <Style id="line-FFFFFF-3131-highlight">
      <LineStyle>
        <color>ffffffff</color>
        <width>4.6965</width>
      </LineStyle>
    </Style>
    <StyleMap id="line-FFFFFF-3131">
      <Pair>
        <key>normal</key>
        <styleUrl>#line-FFFFFF-3131-normal</styleUrl>
      </Pair>
      <Pair>
        <key>highlight</key>
        <styleUrl>#line-FFFFFF-3131-highlight</styleUrl>
      </Pair>
    </StyleMap>
    <Style id="line-FFFFFF-3325-normal">
      <LineStyle>
        <color>ffffffff</color>
        <width>3.325</width>
      </LineStyle>
    </Style>
    <Style id="line-FFFFFF-3325-highlight">
      <LineStyle>
        <color>ffffffff</color>
        <width>4.9875</width>
      </LineStyle>
    </Style>
    <StyleMap id="line-FFFFFF-3325">
      <Pair>
        <key>normal</key>
        <styleUrl>#line-FFFFFF-3325-normal</styleUrl>
      </Pair>
      <Pair>
        <key>highlight</key>
        <styleUrl>#line-FFFFFF-3325-highlight</styleUrl>
      </Pair>
    </StyleMap>
    <Style id="line-FFFFFF-3519-normal">
      <LineStyle>
        <color>ffffffff</color>
        <width>3.519</width>
      </LineStyle>
    </Style>
    <Style id="line-FFFFFF-3519-highlight">
      <LineStyle>
        <color>ffffffff</color>
        <width>5.2785</width>
      </LineStyle>
    </Style>
    <StyleMap id="line-FFFFFF-3519">
      <Pair>
        <key>normal</key>
        <styleUrl>#line-FFFFFF-3519-normal</styleUrl>
      </Pair>
      <Pair>
        <key>highlight</key>
        <styleUrl>#line-FFFFFF-3519-highlight</styleUrl>
      </Pair>
    </StyleMap>
    <Style id="poly-000000-2000-77-normal">
      <LineStyle>
        <color>ff000000</color>
        <width>2</width>
      </LineStyle>
      <PolyStyle>
        <color>4d000000</color>
        <fill>1</fill>
        <outline>1</outline>
      </PolyStyle>
    </Style>
    <Style id="poly-000000-2000-77-highlight">
      <LineStyle>
        <color>ff000000</color>
        <width>3</width>
      </LineStyle>
      <PolyStyle>
        <color>4d000000</color>
        <fill>1</fill>
        <outline>1</outline>
      </PolyStyle>
    </Style>
    <StyleMap id="poly-000000-2000-77">
      <Pair>
        <key>normal</key>
        <styleUrl>#poly-000000-2000-77-normal</styleUrl>
      </Pair>
      <Pair>
        <key>highlight</key>
        <styleUrl>#poly-000000-2000-77-highlight</styleUrl>
      </Pair>
    </StyleMap>
    <Folder>
      <name>Wisselzone</name>
      <Placemark>
        <name>Wisselzone</name>
        <description><![CDATA[beschrijving: <br>name: ]]></description>
        <styleUrl>#poly-000000-2000-77</styleUrl>
        <ExtendedData>
          <Data name="beschrijving">
            <value/>
          </Data>
          <Data name="name">
            <value/>
          </Data>
        </ExtendedData>
        <Polygon>
          <outerBoundaryIs>
            <LinearRing>
              <tessellate>1</tessellate>
              <coordinates>
                6.5135781,53.2075964,0
                6.513755,53.207315,0
                6.513883,53.2070824,0
                6.5144338,53.2071815,0
                6.5142655,53.2074446,0
                6.5141787,53.2075208,0
                6.514057,53.2076363,0
                6.5135781,53.2075964,0
              </coordinates>
            </LinearRing>
          </outerBoundaryIs>
        </Polygon>
      </Placemark>
      <Placemark>
        <name>Begeleider</name>
        <description><![CDATA[beschrijving: Begeleider<br>name: fa-person]]></description>
        <styleUrl>#icon-1899-424242</styleUrl>
        <ExtendedData>
          <Data name="beschrijving">
            <value>Begeleider</value>
          </Data>
          <Data name="name">
            <value>fa-person</value>
          </Data>
        </ExtendedData>
        <Point>
          <coordinates>
            6.5139529,53.2071127,0
          </coordinates>
        </Point>
      </Placemark>
      <Placemark>
        <name>Begeleider</name>
        <description><![CDATA[beschrijving: Begeleider<br>name: fa-person]]></description>
        <styleUrl>#icon-1899-424242</styleUrl>
        <ExtendedData>
          <Data name="beschrijving">
            <value>Begeleider</value>
          </Data>
          <Data name="name">
            <value>fa-person</value>
          </Data>
        </ExtendedData>
        <Point>
          <coordinates>
            6.514235,53.2073982,0
          </coordinates>
        </Point>
      </Placemark>
      <Placemark>
        <name/>
        <description><![CDATA[beschrijving: <br>name: text]]></description>
        <styleUrl>#line-FFFFFF-3000</styleUrl>
        <ExtendedData>
          <Data name="beschrijving">
            <value/>
          </Data>
          <Data name="name">
            <value>text</value>
          </Data>
        </ExtendedData>
        <LineString>
          <tessellate>1</tessellate>
          <coordinates>
            6.5142265,53.2073682,0
            6.5138288,53.2073101,0
          </coordinates>
        </LineString>
      </Placemark>
      <Placemark>
        <name/>
        <description><![CDATA[beschrijving: <br>name: text]]></description>
        <styleUrl>#line-FFFFFF-3000</styleUrl>
        <ExtendedData>
          <Data name="beschrijving">
            <value/>
          </Data>
          <Data name="name">
            <value>text</value>
          </Data>
        </ExtendedData>
        <LineString>
          <tessellate>1</tessellate>
          <coordinates>
            6.5140509,53.2075954,0
            6.5136516,53.207559,0
          </coordinates>
        </LineString>
      </Placemark>
      <Placemark>
        <name/>
        <description><![CDATA[beschrijving: <br>name: text]]></description>
        <styleUrl>#line-FFFFFF-3000</styleUrl>
        <ExtendedData>
          <Data name="beschrijving">
            <value/>
          </Data>
          <Data name="name">
            <value>text</value>
          </Data>
        </ExtendedData>
        <LineString>
          <tessellate>1</tessellate>
          <coordinates>
            6.5141225,53.2074992,0
            6.5137272,53.207457,0
          </coordinates>
        </LineString>
      </Placemark>
      <Placemark>
        <name/>
        <description><![CDATA[beschrijving: <br>name: text]]></description>
        <styleUrl>#line-FFFFFF-3325</styleUrl>
        <ExtendedData>
          <Data name="beschrijving">
            <value/>
          </Data>
          <Data name="name">
            <value>text</value>
          </Data>
        </ExtendedData>
        <LineString>
          <tessellate>1</tessellate>
          <coordinates>
            6.5141871,53.2074093,0
            6.5138044,53.2073575,0
          </coordinates>
        </LineString>
      </Placemark>
      <Placemark>
        <name/>
        <description><![CDATA[beschrijving: <br>name: text]]></description>
        <styleUrl>#line-FFFFFF-2938</styleUrl>
        <ExtendedData>
          <Data name="beschrijving">
            <value/>
          </Data>
          <Data name="name">
            <value>text</value>
          </Data>
        </ExtendedData>
        <LineString>
          <tessellate>1</tessellate>
          <coordinates>
            6.5140906,53.2075502,0
            6.5136884,53.2075069,0
          </coordinates>
        </LineString>
      </Placemark>
      <Placemark>
        <name/>
        <description><![CDATA[beschrijving: <br>name: text]]></description>
        <styleUrl>#line-FFFFFF-3325</styleUrl>
        <ExtendedData>
          <Data name="beschrijving">
            <value/>
          </Data>
          <Data name="name">
            <value>text</value>
          </Data>
        </ExtendedData>
        <LineString>
          <tessellate>1</tessellate>
          <coordinates>
            6.5139563,53.2072786,0
            6.5142588,53.2073264,0
          </coordinates>
        </LineString>
      </Placemark>
      <Placemark>
        <name/>
        <description><![CDATA[beschrijving: <br>name: text]]></description>
        <styleUrl>#line-FFFFFF-2938</styleUrl>
        <ExtendedData>
          <Data name="beschrijving">
            <value/>
          </Data>
          <Data name="name">
            <value>text</value>
          </Data>
        </ExtendedData>
        <LineString>
          <tessellate>1</tessellate>
          <coordinates>
            6.5142862,53.2072409,0
            6.5139932,53.2071928,0
          </coordinates>
        </LineString>
      </Placemark>
      <Placemark>
        <name/>
        <description><![CDATA[beschrijving: <br>name: text]]></description>
        <styleUrl>#line-FFFFFF-3131</styleUrl>
        <ExtendedData>
          <Data name="beschrijving">
            <value/>
          </Data>
          <Data name="name">
            <value>text</value>
          </Data>
        </ExtendedData>
        <LineString>
          <tessellate>1</tessellate>
          <coordinates>
            6.5140139,53.2071516,0
            6.5143103,53.2072038,0
          </coordinates>
        </LineString>
      </Placemark>
      <Placemark>
        <name/>
        <description><![CDATA[beschrijving: <br>name: text]]></description>
        <styleUrl>#line-FFFFFF-3131</styleUrl>
        <ExtendedData>
          <Data name="beschrijving">
            <value/>
          </Data>
          <Data name="name">
            <value>text</value>
          </Data>
        </ExtendedData>
        <LineString>
          <tessellate>1</tessellate>
          <coordinates>
            6.5139846,53.2072374,0
            6.5142877,53.2072872,0
          </coordinates>
        </LineString>
      </Placemark>
      <Placemark>
        <name/>
        <description><![CDATA[beschrijving: <br>name: text]]></description>
        <styleUrl>#line-FFFFFF-3519</styleUrl>
        <ExtendedData>
          <Data name="beschrijving">
            <value/>
          </Data>
          <Data name="name">
            <value>text</value>
          </Data>
        </ExtendedData>
        <LineString>
          <tessellate>1</tessellate>
          <coordinates>
            6.5137686,53.2074045,0
            6.5141575,53.2074519,0
          </coordinates>
        </LineString>
      </Placemark>
      <Placemark>
        <name>Begeleider</name>
        <description><![CDATA[beschrijving: Begeleider<br>name: fa-person]]></description>
        <styleUrl>#icon-1899-424242</styleUrl>
        <ExtendedData>
          <Data name="beschrijving">
            <value>Begeleider</value>
          </Data>
          <Data name="name">
            <value>fa-person</value>
          </Data>
        </ExtendedData>
        <Point>
          <coordinates>
            6.5136621,53.2075716,0
          </coordinates>
        </Point>
      </Placemark>
      <Placemark>
        <name>Begeleider</name>
        <description><![CDATA[beschrijving: Begeleider<br>name: fa-person]]></description>
        <styleUrl>#icon-1899-424242</styleUrl>
        <ExtendedData>
          <Data name="beschrijving">
            <value>Begeleider</value>
          </Data>
          <Data name="name">
            <value>fa-person</value>
          </Data>
        </ExtendedData>
        <Point>
          <coordinates>
            6.5141221,53.2075322,0
          </coordinates>
        </Point>
      </Placemark>
      <Placemark>
        <name>Looplijn fietsen in - lopen uit</name>
        <description><![CDATA[beschrijving: <br>name: ]]></description>
        <styleUrl>#line-097138-3325</styleUrl>
        <ExtendedData>
          <Data name="beschrijving">
            <value/>
          </Data>
          <Data name="name">
            <value/>
          </Data>
        </ExtendedData>
        <LineString>
          <tessellate>1</tessellate>
          <coordinates>
            6.5136156,53.2075796,0
            6.5136903,53.207472,0
            6.5141409,53.2075202,0
            6.5142763,53.2073571,0
            6.5143894,53.2071903,0
          </coordinates>
        </LineString>
      </Placemark>
    </Folder>
    <Folder>
      <name>Wisselzone en transities</name>
      <Placemark>
        <name>Zwemmen in</name>
        <description><![CDATA[beschrijving: <br>name: ]]></description>
        <styleUrl>#line-0288D1-3000</styleUrl>
        <ExtendedData>
          <Data name="beschrijving">
            <value/>
          </Data>
          <Data name="name">
            <value/>
          </Data>
        </ExtendedData>
        <LineString>
          <tessellate>1</tessellate>
          <coordinates>
            6.513366,53.207132,0
            6.5136621,53.2070916,0
            6.5138281,53.207087,0
            6.5138945,53.2071009,0
          </coordinates>
        </LineString>
      </Placemark>
      <Placemark>
        <name>Fietsen uit</name>
        <description><![CDATA[beschrijving: <br>name: ]]></description>
        <styleUrl>#line-E65100-3000</styleUrl>
        <ExtendedData>
          <Data name="beschrijving">
            <value/>
          </Data>
          <Data name="name">
            <value/>
          </Data>
        </ExtendedData>
        <LineString>
          <tessellate>1</tessellate>
          <coordinates>
            6.5140505,53.2076173,0
            6.5141051,53.2076221,0
            6.514083,53.2076544,0
            6.5140516,53.2077003,0
            6.5140087,53.2077199,0
            6.5136142,53.2077447,0
            6.5134199,53.2077656,0
            6.5131456,53.2077776,0
          </coordinates>
        </LineString>
      </Placemark>
      <Placemark>
        <name>Transitie 2 uit</name>
        <description><![CDATA[beschrijving: <br>name: ]]></description>
        <styleUrl>#line-097138-3000</styleUrl>
        <ExtendedData>
          <Data name="beschrijving">
            <value/>
          </Data>
          <Data name="name">
            <value/>
          </Data>
        </ExtendedData>
        <LineString>
          <tessellate>1</tessellate>
          <coordinates>
            6.5143894,53.2071903,0
            6.5144114,53.2071667,0
            6.5144284,53.2071484,0
            6.5144388,53.2071326,0
            6.5144471,53.2071184,0
            6.5144501,53.2070491,0
            6.5144037,53.2069725,0
            6.5143894,53.2068862,0
            6.5144232,53.2068058,0
          </coordinates>
        </LineString>
      </Placemark>
      <Placemark>
        <name>Fietsen in</name>
        <description><![CDATA[beschrijving: <br>name: ]]></description>
        <styleUrl>#line-A52714-3000</styleUrl>
        <ExtendedData>
          <Data name="beschrijving">
            <value/>
          </Data>
          <Data name="name">
            <value/>
          </Data>
        </ExtendedData>
        <LineString>
          <tessellate>1</tessellate>
          <coordinates>
            6.5131389,53.2077591,0
            6.513196,53.2077577,0
            6.5132885,53.2077509,0
            6.5133487,53.207742,0
            6.5134084,53.207721,0
            6.5134731,53.2076805,0
            6.5135271,53.2076315,0
            6.5135692,53.2075786,0
            6.5136156,53.2075796,0
          </coordinates>
        </LineString>
      </Placemark>
      <Placemark>
        <name>Looplijn zwemmen - fietsen uit</name>
        <description><![CDATA[beschrijving: <br>name: ]]></description>
        <styleUrl>#line-01579B-2938</styleUrl>
        <ExtendedData>
          <Data name="beschrijving">
            <value/>
          </Data>
          <Data name="name">
            <value/>
          </Data>
        </ExtendedData>
        <LineString>
          <tessellate>1</tessellate>
          <coordinates>
            6.5138945,53.2071009,0
            6.5139115,53.2071129,0
            6.513748,53.2073732,0
            6.5142119,53.2074302,0
            6.5140505,53.2076173,0
          </coordinates>
        </LineString>
      </Placemark>
    </Folder>
    <Folder>
      <name>Loopparcours</name>
      <Placemark>
        <name>Aanloopstrook lopen</name>
        <description><![CDATA[beschrijving: Vanuit de wisselzone richting loopparcours<br>name: Aanloopstrook lopen<br>description: ]]></description>
        <styleUrl>#line-097138-3131</styleUrl>
        <ExtendedData>
          <Data name="beschrijving">
            <value>Vanuit de wisselzone richting loopparcours</value>
          </Data>
          <Data name="name">
            <value>Aanloopstrook lopen</value>
          </Data>
          <Data name="description">
            <value/>
          </Data>
        </ExtendedData>
        <LineString>
          <tessellate>1</tessellate>
          <coordinates>
            6.5144232,53.2068058,0
            6.5144754,53.2067507,0
            6.5145344,53.2066736,0
            6.5145639,53.2066222,0
            6.5145961,53.2065659,0
            6.514639,53.2064904,0
            6.5146658,53.2064358,0
            6.514698,53.2063908,0
            6.5147516,53.2063635,0
            6.5148133,53.2063458,0
            6.514867,53.206333,0
            6.5149447,53.2063346,0
            6.5150333,53.2063346,0
            6.5151298,53.2063201,0
            6.5152291,53.206288,0
            6.5152827,53.2062607,0
            6.5153632,53.2062061,0
            6.5154383,53.2061611,0
            6.5155468,53.2060913,0
            6.5157654,53.2059676,0
            6.5159062,53.2058969,0
            6.5160349,53.2058503,0
            6.5161865,53.2058005,0
            6.5163434,53.2057579,0
            6.5164949,53.205729,0
            6.5167055,53.2056929,0
            6.5168088,53.2056752,0
            6.5168841,53.2056693,0
            6.5169579,53.2056428,0
            6.5170021,53.2056099,0
            6.517045,53.2055729,0
          </coordinates>
        </LineString>
      </Placemark>
    </Folder>
    <Folder>
      <name>Markering/waarschuwingen</name>
    </Folder>
  </Document>
</kml>
