<?xml version="1.0" encoding="UTF-8"?><gpx version="1.1" creator="GVAV Speedman" xmlns="http://www.topografix.com/GPX/1/1"><wpt lat="53.2073878" lon="6.5142993"><ele>0</ele><name>fa-check-circle</name></wpt><wpt lat="53.2071528" lon="6.5141911"><ele>0</ele><name>fa-arrows-h</name></wpt><wpt lat="53.2068988" lon="6.5140423"><ele>0</ele><name>fa-microphone</name></wpt><wpt lat="53.2072091" lon="6.513883"><ele>0</ele><name>fa-suitcase</name></wpt><wpt lat="53.207095" lon="6.5138778"><ele>0</ele><name>fa-stopwatch</name></wpt><wpt lat="53.207769" lon="6.5131777"><ele>0</ele><name>fa-stopwatch</name></wpt><wpt lat="53.2071794" lon="6.5144055"><ele>0</ele><name>fa-stopwatch</name></wpt><wpt lat="53.2077064" lon="6.5135272"><ele>0</ele><name>fa-hourglass-half</name></wpt><wpt lat="53.206898" lon="6.514041"><ele>0</ele><name>fa-microphone</name></wpt><wpt lat="53.201613" lon="6.5069257"><ele>0</ele><name>fa-stopwatch</name></wpt><wpt lat="53.207718" lon="6.514291"><ele>0</ele><name>fa-stopwatch</name></wpt><wpt lat="53.2014322" lon="6.5081604"><ele>0</ele><name>fa-arrow-circle-left</name></wpt><wpt lat="53.2080264" lon="6.5135359"><ele>0</ele><name>fa-flag-checkered</name></wpt><wpt lat="53.207946" lon="6.508714"><ele>0</ele><name>fa-warning</name></wpt><wpt lat="53.202993" lon="6.502281"><ele>0</ele><name>fa-trash</name></wpt><wpt lat="53.202164" lon="6.504984"><ele>0</ele><name>fa-trash</name></wpt><wpt lat="53.207856" lon="6.480679"><ele>0</ele><name>fa-warning</name></wpt><wpt lat="53.207772" lon="6.5132199"><ele>0</ele><name>fa-arrows-v</name></wpt><wpt lat="53.201394" lon="6.5083819"><ele>0</ele><name>fa-warning</name></wpt><wpt lat="53.2070811" lon="6.5138318"><ele>0</ele><name>fa-arrows-v</name></wpt><wpt lat="53.2076978" lon="6.5142713"><ele>0</ele><name>fa-tint</name></wpt><wpt lat="53.2078357" lon="6.5135798"><ele>0</ele><name>fa-user-circle</name></wpt><wpt lat="53.2078952" lon="6.5126582"><ele>0</ele><name>fa-user-circle</name></wpt><wpt lat="53.207316" lon="6.513247"><ele>0</ele><name>fa-person-swimming</name></wpt><wpt lat="53.207004" lon="6.513562"><ele>0</ele><name>fa-flag-checkered</name></wpt><wpt lat="53.206742" lon="6.51283"><ele>0</ele><name>fa-circle</name></wpt><wpt lat="53.206093" lon="6.510942"><ele>0</ele><name>fa-circle</name></wpt><wpt lat="53.207301" lon="6.512422"><ele>0</ele><name>fa-circle</name></wpt><wpt lat="53.207254" lon="6.510295"><ele>0</ele><name>fa-circle</name></wpt><wpt lat="53.205608" lon="6.514528"><ele>0</ele><name>fa-circle</name></wpt><wpt lat="53.205426" lon="6.514276"><ele>0</ele><name>fa-circle</name></wpt><trk><trkseg><trkpt lat="53.207916" lon="6.513117"><ele>0</ele></trkpt><trkpt lat="53.207873" lon="6.513141"><ele>0</ele></trkpt><trkpt lat="53.20783" lon="6.513173"><ele>0</ele></trkpt><trkpt lat="53.20781" lon="6.513232"><ele>0</ele></trkpt><trkpt lat="53.207804" lon="6.513278"><ele>0</ele></trkpt><trkpt lat="53.2077954" lon="6.513409"><ele>0</ele></trkpt><trkpt lat="53.2077858" lon="6.5135464"><ele>0</ele></trkpt><trkpt lat="53.2077681" lon="6.5137208"><ele>0</ele></trkpt><trkpt lat="53.2077501" lon="6.5139134"><ele>0</ele></trkpt><trkpt lat="53.207746" lon="6.5139831"><ele>0</ele></trkpt><trkpt lat="53.2077371" lon="6.5140448"><ele>0</ele></trkpt><trkpt lat="53.2077104" lon="6.5140785"><ele>0</ele></trkpt><trkpt lat="53.2076645" lon="6.514123"><ele>0</ele></trkpt><trkpt lat="53.2076301" lon="6.5141562"><ele>0</ele></trkpt><trkpt lat="53.2075746" lon="6.5142124"><ele>0</ele></trkpt><trkpt lat="53.2074822" lon="6.5143196"><ele>0</ele></trkpt><trkpt lat="53.2074344" lon="6.5143545"><ele>0</ele></trkpt><trkpt lat="53.2073946" lon="6.5143384"><ele>0</ele></trkpt><trkpt lat="53.2073878" lon="6.5142993"><ele>0</ele></trkpt></trkseg></trk><trk><trkseg><trkpt lat="53.204801" lon="6.5177553"><ele>0</ele></trkpt><trkpt lat="53.2050624" lon="6.5175486"><ele>0</ele></trkpt><trkpt lat="53.2054189" lon="6.5172543"><ele>0</ele></trkpt><trkpt lat="53.2056277" lon="6.517075"><ele>0</ele></trkpt><trkpt lat="53.205814" lon="6.516901"><ele>0</ele></trkpt><trkpt lat="53.2058855" lon="6.5168062"><ele>0</ele></trkpt><trkpt lat="53.2059767" lon="6.5167127"><ele>0</ele></trkpt><trkpt lat="53.2061412" lon="6.516565"><ele>0</ele></trkpt><trkpt lat="53.2062563" lon="6.5164696"><ele>0</ele></trkpt><trkpt lat="53.2068216" lon="6.5159439"><ele>0</ele></trkpt><trkpt lat="53.2078526" lon="6.5150874"><ele>0</ele></trkpt><trkpt lat="53.2085363" lon="6.5146463"><ele>0</ele></trkpt><trkpt lat="53.2093833" lon="6.5141966"><ele>0</ele></trkpt><trkpt lat="53.2101755" lon="6.513806"><ele>0</ele></trkpt><trkpt lat="53.21022" lon="6.5137262"><ele>0</ele></trkpt><trkpt lat="53.2102513" lon="6.513629"><ele>0</ele></trkpt><trkpt lat="53.2102698" lon="6.5127372"><ele>0</ele></trkpt><trkpt lat="53.2102755" lon="6.5123699"><ele>0</ele></trkpt><trkpt lat="53.2098242" lon="6.5123258"><ele>0</ele></trkpt><trkpt lat="53.2093873" lon="6.5123534"><ele>0</ele></trkpt><trkpt lat="53.2089572" lon="6.5124177"><ele>0</ele></trkpt><trkpt lat="53.2085933" lon="6.5125133"><ele>0</ele></trkpt><trkpt lat="53.2084538" lon="6.5125689"><ele>0</ele></trkpt><trkpt lat="53.208188" lon="6.51268"><ele>0</ele></trkpt><trkpt lat="53.2081" lon="6.512724"><ele>0</ele></trkpt><trkpt lat="53.208038" lon="6.512754"><ele>0</ele></trkpt><trkpt lat="53.207985" lon="6.512778"><ele>0</ele></trkpt><trkpt lat="53.207956" lon="6.512791"><ele>0</ele></trkpt><trkpt lat="53.207927" lon="6.512808"><ele>0</ele></trkpt><trkpt lat="53.207902" lon="6.512831"><ele>0</ele></trkpt><trkpt lat="53.207898" lon="6.512915"><ele>0</ele></trkpt><trkpt lat="53.207922" lon="6.512972"><ele>0</ele></trkpt></trkseg></trk><trk><trkseg><trkpt lat="53.207004" lon="6.513562"><ele>0</ele></trkpt><trkpt lat="53.2070917" lon="6.5138965"><ele>0</ele></trkpt></trkseg></trk><trk><trkseg><trkpt lat="53.2076146" lon="6.5140186"><ele>0</ele></trkpt><trkpt lat="53.2076451" lon="6.5140703"><ele>0</ele></trkpt><trkpt lat="53.2076684" lon="6.5140662"><ele>0</ele></trkpt><trkpt lat="53.2076986" lon="6.5140564"><ele>0</ele></trkpt><trkpt lat="53.2077177" lon="6.5140091"><ele>0</ele></trkpt><trkpt lat="53.2077271" lon="6.5139403"><ele>0</ele></trkpt><trkpt lat="53.2077364" lon="6.5137069"><ele>0</ele></trkpt><trkpt lat="53.207748" lon="6.5135144"><ele>0</ele></trkpt><trkpt lat="53.2077661" lon="6.5133774"><ele>0</ele></trkpt><trkpt lat="53.207776" lon="6.513222"><ele>0</ele></trkpt></trkseg></trk><trk><trkseg><trkpt lat="53.207762" lon="6.513224"><ele>0</ele></trkpt><trkpt lat="53.2077595" lon="6.5132887"><ele>0</ele></trkpt><trkpt lat="53.2077486" lon="6.5133696"><ele>0</ele></trkpt><trkpt lat="53.2077254" lon="6.5134178"><ele>0</ele></trkpt><trkpt lat="53.2076876" lon="6.5134762"><ele>0</ele></trkpt><trkpt lat="53.2076104" lon="6.5135479"><ele>0</ele></trkpt><trkpt lat="53.2075837" lon="6.5135724"><ele>0</ele></trkpt><trkpt lat="53.2075837" lon="6.513625"><ele>0</ele></trkpt></trkseg></trk><trk><trkseg><trkpt lat="53.207184" lon="6.5144128"><ele>0</ele></trkpt><trkpt lat="53.2071184" lon="6.5144471"><ele>0</ele></trkpt><trkpt lat="53.2070491" lon="6.5144501"><ele>0</ele></trkpt><trkpt lat="53.2069725" lon="6.5144037"><ele>0</ele></trkpt><trkpt lat="53.2068862" lon="6.5143894"><ele>0</ele></trkpt><trkpt lat="53.2068151" lon="6.5144266"><ele>0</ele></trkpt></trkseg></trk><trk><name>Aanloopstrook fietsen</name><trkseg><trkpt lat="53.207776" lon="6.513222"><ele>0</ele></trkpt><trkpt lat="53.207948" lon="6.509938"><ele>0</ele></trkpt><trkpt lat="53.207948" lon="6.509624"><ele>0</ele></trkpt><trkpt lat="53.207991" lon="6.508764"><ele>0</ele></trkpt><trkpt lat="53.2079658" lon="6.5085711"><ele>0</ele></trkpt><trkpt lat="53.2079807" lon="6.5082281"><ele>0</ele></trkpt><trkpt lat="53.2079949" lon="6.5079227"><ele>0</ele></trkpt><trkpt lat="53.2080197" lon="6.5075205"><ele>0</ele></trkpt><trkpt lat="53.2080291" lon="6.5071779"><ele>0</ele></trkpt><trkpt lat="53.2080204" lon="6.5070618"><ele>0</ele></trkpt><trkpt lat="53.2080027" lon="6.5069388"><ele>0</ele></trkpt><trkpt lat="53.2079741" lon="6.506845"><ele>0</ele></trkpt><trkpt lat="53.2079487" lon="6.5068102"><ele>0</ele></trkpt><trkpt lat="53.2079166" lon="6.5067947"><ele>0</ele></trkpt><trkpt lat="53.2078788" lon="6.5067829"><ele>0</ele></trkpt><trkpt lat="53.2078458" lon="6.5067871"><ele>0</ele></trkpt><trkpt lat="53.2077602" lon="6.5068563"><ele>0</ele></trkpt><trkpt lat="53.2075498" lon="6.5070041"><ele>0</ele></trkpt><trkpt lat="53.2070619" lon="6.5072829"><ele>0</ele></trkpt><trkpt lat="53.206476" lon="6.5076357"><ele>0</ele></trkpt><trkpt lat="53.2059175" lon="6.5079564"><ele>0</ele></trkpt><trkpt lat="53.2055277" lon="6.508168"><ele>0</ele></trkpt><trkpt lat="53.2052382" lon="6.5083321"><ele>0</ele></trkpt><trkpt lat="53.205014" lon="6.5084914"><ele>0</ele></trkpt><trkpt lat="53.2046138" lon="6.5088376"><ele>0</ele></trkpt><trkpt lat="53.2042877" lon="6.5091376"><ele>0</ele></trkpt><trkpt lat="53.2040634" lon="6.5093649"><ele>0</ele></trkpt><trkpt lat="53.2036969" lon="6.5097097"><ele>0</ele></trkpt><trkpt lat="53.2034281" lon="6.5099426"><ele>0</ele></trkpt><trkpt lat="53.203277" lon="6.510018"><ele>0</ele></trkpt><trkpt lat="53.203085" lon="6.510187"><ele>0</ele></trkpt><trkpt lat="53.201891" lon="6.511327"><ele>0</ele></trkpt><trkpt lat="53.20165" lon="6.51156"><ele>0</ele></trkpt><trkpt lat="53.201425" lon="6.511724"><ele>0</ele></trkpt><trkpt lat="53.201372" lon="6.511716"><ele>0</ele></trkpt><trkpt lat="53.201313" lon="6.511689"><ele>0</ele></trkpt><trkpt lat="53.20127" lon="6.511632"><ele>0</ele></trkpt><trkpt lat="53.201229" lon="6.511552"><ele>0</ele></trkpt><trkpt lat="53.201189" lon="6.511428"><ele>0</ele></trkpt><trkpt lat="53.201146" lon="6.511337"><ele>0</ele></trkpt><trkpt lat="53.20109" lon="6.511225"><ele>0</ele></trkpt><trkpt lat="53.201017" lon="6.511139"><ele>0</ele></trkpt><trkpt lat="53.200964" lon="6.511066"><ele>0</ele></trkpt><trkpt lat="53.200873" lon="6.510959"><ele>0</ele></trkpt><trkpt lat="53.200848" lon="6.510876"><ele>0</ele></trkpt><trkpt lat="53.200832" lon="6.51079"><ele>0</ele></trkpt><trkpt lat="53.200837" lon="6.510702"><ele>0</ele></trkpt><trkpt lat="53.200879" lon="6.510498"><ele>0</ele></trkpt><trkpt lat="53.200946" lon="6.510264"><ele>0</ele></trkpt><trkpt lat="53.201088" lon="6.509811"><ele>0</ele></trkpt><trkpt lat="53.201322" lon="6.509017"><ele>0</ele></trkpt><trkpt lat="53.201403" lon="6.508698"><ele>0</ele></trkpt><trkpt lat="53.201483" lon="6.508341"><ele>0</ele></trkpt><trkpt lat="53.201564" lon="6.50774"><ele>0</ele></trkpt><trkpt lat="53.201583" lon="6.507491"><ele>0</ele></trkpt><trkpt lat="53.201641" lon="6.507091"><ele>0</ele></trkpt><trkpt lat="53.201723" lon="6.506697"><ele>0</ele></trkpt><trkpt lat="53.201843" lon="6.506244"><ele>0</ele></trkpt><trkpt lat="53.202167" lon="6.505182"><ele>0</ele></trkpt><trkpt lat="53.202233" lon="6.504974"><ele>0</ele></trkpt><trkpt lat="53.202544" lon="6.503951"><ele>0</ele></trkpt><trkpt lat="53.203238" lon="6.501639"><ele>0</ele></trkpt><trkpt lat="53.203446" lon="6.500845"><ele>0</ele></trkpt><trkpt lat="53.20361" lon="6.500062"><ele>0</ele></trkpt><trkpt lat="53.203729" lon="6.499472"><ele>0</ele></trkpt><trkpt lat="53.20381" lon="6.498989"><ele>0</ele></trkpt><trkpt lat="53.203896" lon="6.498345"><ele>0</ele></trkpt><trkpt lat="53.203971" lon="6.497666"><ele>0</ele></trkpt><trkpt lat="53.204027" lon="6.497008"><ele>0</ele></trkpt><trkpt lat="53.204051" lon="6.496629"><ele>0</ele></trkpt><trkpt lat="53.20408" lon="6.49591"><ele>0</ele></trkpt><trkpt lat="53.204096" lon="6.495549"><ele>0</ele></trkpt><trkpt lat="53.204158" lon="6.494127"><ele>0</ele></trkpt><trkpt lat="53.204192" lon="6.49307"><ele>0</ele></trkpt><trkpt lat="53.20421" lon="6.492548"><ele>0</ele></trkpt><trkpt lat="53.204197" lon="6.492454"><ele>0</ele></trkpt><trkpt lat="53.204197" lon="6.492302"><ele>0</ele></trkpt></trkseg></trk><trk><name>Terugkomstrook fietsen</name><trkseg><trkpt lat="53.201416" lon="6.508147"><ele>0</ele></trkpt><trkpt lat="53.2014" lon="6.508247"><ele>0</ele></trkpt><trkpt lat="53.201397" lon="6.508348"><ele>0</ele></trkpt><trkpt lat="53.201378" lon="6.508548"><ele>0</ele></trkpt><trkpt lat="53.201313" lon="6.508814"><ele>0</ele></trkpt><trkpt lat="53.201257" lon="6.509013"><ele>0</ele></trkpt><trkpt lat="53.201218" lon="6.509159"><ele>0</ele></trkpt><trkpt lat="53.201178" lon="6.509315"><ele>0</ele></trkpt><trkpt lat="53.201109" lon="6.509536"><ele>0</ele></trkpt><trkpt lat="53.201036" lon="6.509754"><ele>0</ele></trkpt><trkpt lat="53.200954" lon="6.509971"><ele>0</ele></trkpt><trkpt lat="53.200885" lon="6.510116"><ele>0</ele></trkpt><trkpt lat="53.20079" lon="6.510283"><ele>0</ele></trkpt><trkpt lat="53.200728" lon="6.510425"><ele>0</ele></trkpt><trkpt lat="53.200691" lon="6.510586"><ele>0</ele></trkpt><trkpt lat="53.20068" lon="6.510714"><ele>0</ele></trkpt><trkpt lat="53.200688" lon="6.510816"><ele>0</ele></trkpt><trkpt lat="53.200705" lon="6.510888"><ele>0</ele></trkpt><trkpt lat="53.200715" lon="6.510934"><ele>0</ele></trkpt><trkpt lat="53.200766" lon="6.511005"><ele>0</ele></trkpt><trkpt lat="53.200877" lon="6.511092"><ele>0</ele></trkpt><trkpt lat="53.20097" lon="6.511207"><ele>0</ele></trkpt><trkpt lat="53.201038" lon="6.511288"><ele>0</ele></trkpt><trkpt lat="53.201125" lon="6.511465"><ele>0</ele></trkpt><trkpt lat="53.201189" lon="6.511642"><ele>0</ele></trkpt><trkpt lat="53.201292" lon="6.511791"><ele>0</ele></trkpt><trkpt lat="53.20131" lon="6.511812"><ele>0</ele></trkpt><trkpt lat="53.201368" lon="6.511842"><ele>0</ele></trkpt><trkpt lat="53.2014304" lon="6.5118227"><ele>0</ele></trkpt><trkpt lat="53.2015765" lon="6.51171"><ele>0</ele></trkpt><trkpt lat="53.201725" lon="6.5115784"><ele>0</ele></trkpt><trkpt lat="53.2023624" lon="6.5109917"><ele>0</ele></trkpt><trkpt lat="53.2028055" lon="6.5105673"><ele>0</ele></trkpt><trkpt lat="53.2031187" lon="6.5102367"><ele>0</ele></trkpt><trkpt lat="53.2033001" lon="6.5100875"><ele>0</ele></trkpt><trkpt lat="53.203471" lon="6.5100198"><ele>0</ele></trkpt><trkpt lat="53.2035622" lon="6.5099334"><ele>0</ele></trkpt><trkpt lat="53.2040089" lon="6.5094816"><ele>0</ele></trkpt><trkpt lat="53.2041509" lon="6.5093701"><ele>0</ele></trkpt><trkpt lat="53.2042784" lon="6.509256"><ele>0</ele></trkpt><trkpt lat="53.2046135" lon="6.5089093"><ele>0</ele></trkpt><trkpt lat="53.204984" lon="6.5086081"><ele>0</ele></trkpt><trkpt lat="53.2053244" lon="6.5083845"><ele>0</ele></trkpt><trkpt lat="53.205974" lon="6.5079856"><ele>0</ele></trkpt><trkpt lat="53.2065421" lon="6.5076612"><ele>0</ele></trkpt><trkpt lat="53.2068354" lon="6.507523"><ele>0</ele></trkpt><trkpt lat="53.2073927" lon="6.5071872"><ele>0</ele></trkpt><trkpt lat="53.2076729" lon="6.5070136"><ele>0</ele></trkpt><trkpt lat="53.2078141" lon="6.5069077"><ele>0</ele></trkpt><trkpt lat="53.2078794" lon="6.5068769"><ele>0</ele></trkpt><trkpt lat="53.2079181" lon="6.5068789"><ele>0</ele></trkpt><trkpt lat="53.2079431" lon="6.5069064"><ele>0</ele></trkpt><trkpt lat="53.2079772" lon="6.5069681"><ele>0</ele></trkpt><trkpt lat="53.208004" lon="6.507103"><ele>0</ele></trkpt><trkpt lat="53.208009" lon="6.507279"><ele>0</ele></trkpt><trkpt lat="53.207984" lon="6.507822"><ele>0</ele></trkpt><trkpt lat="53.207937" lon="6.508697"><ele>0</ele></trkpt><trkpt lat="53.207937" lon="6.508858"><ele>0</ele></trkpt><trkpt lat="53.207947" lon="6.508989"><ele>0</ele></trkpt><trkpt lat="53.207958" lon="6.509136"><ele>0</ele></trkpt><trkpt lat="53.207933" lon="6.509589"><ele>0</ele></trkpt><trkpt lat="53.207933" lon="6.509763"><ele>0</ele></trkpt><trkpt lat="53.207932" lon="6.509947"><ele>0</ele></trkpt><trkpt lat="53.207762" lon="6.513224"><ele>0</ele></trkpt></trkseg></trk><trk><name>Fietsparcours</name><trkseg><trkpt lat="53.202187" lon="6.505001"><ele>0</ele></trkpt><trkpt lat="53.202362" lon="6.504429"><ele>0</ele></trkpt><trkpt lat="53.202614" lon="6.503627"><ele>0</ele></trkpt><trkpt lat="53.202737" lon="6.503221"><ele>0</ele></trkpt><trkpt lat="53.20286" lon="6.502818"><ele>0</ele></trkpt><trkpt lat="53.202925" lon="6.50258"><ele>0</ele></trkpt><trkpt lat="53.203011" lon="6.502291"><ele>0</ele></trkpt><trkpt lat="53.203178" lon="6.501727"><ele>0</ele></trkpt><trkpt lat="53.203305" lon="6.501276"><ele>0</ele></trkpt><trkpt lat="53.203458" lon="6.500652"><ele>0</ele></trkpt><trkpt lat="53.203526" lon="6.500341"><ele>0</ele></trkpt><trkpt lat="53.203668" lon="6.499634"><ele>0</ele></trkpt><trkpt lat="53.203816" lon="6.498761"><ele>0</ele></trkpt><trkpt lat="53.203901" lon="6.498017"><ele>0</ele></trkpt><trkpt lat="53.204" lon="6.496788"><ele>0</ele></trkpt><trkpt lat="53.204075" lon="6.495294"><ele>0</ele></trkpt><trkpt lat="53.204136" lon="6.493755"><ele>0</ele></trkpt><trkpt lat="53.204146" lon="6.493312"><ele>0</ele></trkpt><trkpt lat="53.204179" lon="6.492655"><ele>0</ele></trkpt><trkpt lat="53.204186" lon="6.492474"><ele>0</ele></trkpt><trkpt lat="53.20424" lon="6.491587"><ele>0</ele></trkpt><trkpt lat="53.204252" lon="6.491452"><ele>0</ele></trkpt><trkpt lat="53.204277" lon="6.491334"><ele>0</ele></trkpt><trkpt lat="53.204319" lon="6.491251"><ele>0</ele></trkpt><trkpt lat="53.204369" lon="6.491202"><ele>0</ele></trkpt><trkpt lat="53.204456" lon="6.491189"><ele>0</ele></trkpt><trkpt lat="53.20457" lon="6.491208"><ele>0</ele></trkpt><trkpt lat="53.205042" lon="6.491256"><ele>0</ele></trkpt><trkpt lat="53.205346" lon="6.491224"><ele>0</ele></trkpt><trkpt lat="53.205665" lon="6.49109"><ele>0</ele></trkpt><trkpt lat="53.206428" lon="6.490674"><ele>0</ele></trkpt><trkpt lat="53.20947" lon="6.488865"><ele>0</ele></trkpt><trkpt lat="53.209524" lon="6.488828"><ele>0</ele></trkpt><trkpt lat="53.209531" lon="6.488762"><ele>0</ele></trkpt><trkpt lat="53.209518" lon="6.48869"><ele>0</ele></trkpt><trkpt lat="53.209108" lon="6.486561"><ele>0</ele></trkpt><trkpt lat="53.209044" lon="6.486376"><ele>0</ele></trkpt><trkpt lat="53.208986" lon="6.48626"><ele>0</ele></trkpt><trkpt lat="53.208925" lon="6.48615"><ele>0</ele></trkpt><trkpt lat="53.208856" lon="6.485987"><ele>0</ele></trkpt><trkpt lat="53.208523" lon="6.484217"><ele>0</ele></trkpt><trkpt lat="53.207872" lon="6.480766"><ele>0</ele></trkpt><trkpt lat="53.207846" lon="6.480612"><ele>0</ele></trkpt><trkpt lat="53.20786" lon="6.480564"><ele>0</ele></trkpt><trkpt lat="53.207926" lon="6.480521"><ele>0</ele></trkpt><trkpt lat="53.209679" lon="6.479582"><ele>0</ele></trkpt><trkpt lat="53.209731" lon="6.479486"><ele>0</ele></trkpt><trkpt lat="53.209737" lon="6.479349"><ele>0</ele></trkpt><trkpt lat="53.209703" lon="6.479215"><ele>0</ele></trkpt><trkpt lat="53.2086497" lon="6.4741209"><ele>0</ele></trkpt><trkpt lat="53.2086221" lon="6.4740681"><ele>0</ele></trkpt><trkpt lat="53.2085927" lon="6.4740421"><ele>0</ele></trkpt><trkpt lat="53.2085655" lon="6.4740278"><ele>0</ele></trkpt><trkpt lat="53.2085336" lon="6.4740205"><ele>0</ele></trkpt><trkpt lat="53.2075601" lon="6.474498"><ele>0</ele></trkpt><trkpt lat="53.2061797" lon="6.4752279"><ele>0</ele></trkpt><trkpt lat="53.206125" lon="6.4753205"><ele>0</ele></trkpt><trkpt lat="53.2060953" lon="6.4753928"><ele>0</ele></trkpt><trkpt lat="53.206097" lon="6.475529"><ele>0</ele></trkpt><trkpt lat="53.206509" lon="6.47785"><ele>0</ele></trkpt><trkpt lat="53.207067" lon="6.480733"><ele>0</ele></trkpt><trkpt lat="53.207113" lon="6.480942"><ele>0</ele></trkpt><trkpt lat="53.20754" lon="6.480706"><ele>0</ele></trkpt><trkpt lat="53.207795" lon="6.480607"><ele>0</ele></trkpt><trkpt lat="53.207824" lon="6.480624"><ele>0</ele></trkpt><trkpt lat="53.207851" lon="6.480765"><ele>0</ele></trkpt><trkpt lat="53.208832" lon="6.485999"><ele>0</ele></trkpt><trkpt lat="53.208904" lon="6.486183"><ele>0</ele></trkpt><trkpt lat="53.208963" lon="6.486284"><ele>0</ele></trkpt><trkpt lat="53.20902" lon="6.486405"><ele>0</ele></trkpt><trkpt lat="53.209084" lon="6.48659"><ele>0</ele></trkpt><trkpt lat="53.209515" lon="6.488785"><ele>0</ele></trkpt><trkpt lat="53.208164" lon="6.489564"><ele>0</ele></trkpt><trkpt lat="53.20733" lon="6.490057"><ele>0</ele></trkpt><trkpt lat="53.206484" lon="6.490588"><ele>0</ele></trkpt><trkpt lat="53.205719" lon="6.491007"><ele>0</ele></trkpt><trkpt lat="53.205351" lon="6.491176"><ele>0</ele></trkpt><trkpt lat="53.205235" lon="6.491197"><ele>0</ele></trkpt><trkpt lat="53.204933" lon="6.491192"><ele>0</ele></trkpt><trkpt lat="53.204411" lon="6.491128"><ele>0</ele></trkpt><trkpt lat="53.20435" lon="6.491144"><ele>0</ele></trkpt><trkpt lat="53.204315" lon="6.491176"><ele>0</ele></trkpt><trkpt lat="53.204284" lon="6.491214"><ele>0</ele></trkpt><trkpt lat="53.204252" lon="6.491264"><ele>0</ele></trkpt><trkpt lat="53.204231" lon="6.491323"><ele>0</ele></trkpt><trkpt lat="53.204218" lon="6.49139"><ele>0</ele></trkpt><trkpt lat="53.204206" lon="6.491468"><ele>0</ele></trkpt><trkpt lat="53.204182" lon="6.492034"><ele>0</ele></trkpt><trkpt lat="53.204127" lon="6.49308"><ele>0</ele></trkpt><trkpt lat="53.204096" lon="6.493957"><ele>0</ele></trkpt><trkpt lat="53.204006" lon="6.496001"><ele>0</ele></trkpt><trkpt lat="53.203968" lon="6.496763"><ele>0</ele></trkpt><trkpt lat="53.203891" lon="6.49779"><ele>0</ele></trkpt><trkpt lat="53.203836" lon="6.498362"><ele>0</ele></trkpt><trkpt lat="53.203768" lon="6.498917"><ele>0</ele></trkpt><trkpt lat="53.203683" lon="6.499382"><ele>0</ele></trkpt><trkpt lat="53.203517" lon="6.500253"><ele>0</ele></trkpt><trkpt lat="53.203432" lon="6.500662"><ele>0</ele></trkpt><trkpt lat="53.203293" lon="6.501221"><ele>0</ele></trkpt><trkpt lat="53.202989" lon="6.50229"><ele>0</ele></trkpt><trkpt lat="53.202673" lon="6.503361"><ele>0</ele></trkpt><trkpt lat="53.201958" lon="6.505646"><ele>0</ele></trkpt><trkpt lat="53.201757" lon="6.506288"><ele>0</ele></trkpt><trkpt lat="53.201637" lon="6.50676"><ele>0</ele></trkpt><trkpt lat="53.201553" lon="6.50721"><ele>0</ele></trkpt><trkpt lat="53.201479" lon="6.5078"><ele>0</ele></trkpt><trkpt lat="53.201454" lon="6.507956"><ele>0</ele></trkpt><trkpt lat="53.201434" lon="6.508056"><ele>0</ele></trkpt><trkpt lat="53.201416" lon="6.508147"><ele>0</ele></trkpt><trkpt lat="53.201412" lon="6.50819"><ele>0</ele></trkpt><trkpt lat="53.201423" lon="6.508216"><ele>0</ele></trkpt><trkpt lat="53.201438" lon="6.508218"><ele>0</ele></trkpt><trkpt lat="53.201453" lon="6.508195"><ele>0</ele></trkpt><trkpt lat="53.201461" lon="6.50816"><ele>0</ele></trkpt><trkpt lat="53.201473" lon="6.508109"><ele>0</ele></trkpt><trkpt lat="53.201493" lon="6.50798"><ele>0</ele></trkpt><trkpt lat="53.201504" lon="6.507878"><ele>0</ele></trkpt><trkpt lat="53.201538" lon="6.507578"><ele>0</ele></trkpt><trkpt lat="53.201567" lon="6.507288"><ele>0</ele></trkpt><trkpt lat="53.201655" lon="6.506835"><ele>0</ele></trkpt><trkpt lat="53.201726" lon="6.506548"><ele>0</ele></trkpt><trkpt lat="53.201862" lon="6.506062"><ele>0</ele></trkpt><trkpt lat="53.202084" lon="6.505325"><ele>0</ele></trkpt><trkpt lat="53.202187" lon="6.505001"><ele>0</ele></trkpt></trkseg></trk><trk><name>Loopparcours</name><trkseg><trkpt lat="53.207697" lon="6.514292"><ele>0</ele></trkpt><trkpt lat="53.207682" lon="6.514349"><ele>0</ele></trkpt><trkpt lat="53.207648" lon="6.514435"><ele>0</ele></trkpt><trkpt lat="53.207574" lon="6.514558"><ele>0</ele></trkpt><trkpt lat="53.207425" lon="6.514755"><ele>0</ele></trkpt><trkpt lat="53.207346" lon="6.514861"><ele>0</ele></trkpt><trkpt lat="53.207264" lon="6.514953"><ele>0</ele></trkpt><trkpt lat="53.207126" lon="6.51508"><ele>0</ele></trkpt><trkpt lat="53.206908" lon="6.515237"><ele>0</ele></trkpt><trkpt lat="53.206815" lon="6.515285"><ele>0</ele></trkpt><trkpt lat="53.206598" lon="6.51541"><ele>0</ele></trkpt><trkpt lat="53.206356" lon="6.515554"><ele>0</ele></trkpt><trkpt lat="53.206206" lon="6.515698"><ele>0</ele></trkpt><trkpt lat="53.206085" lon="6.515865"><ele>0</ele></trkpt><trkpt lat="53.205987" lon="6.516038"><ele>0</ele></trkpt><trkpt lat="53.205918" lon="6.516207"><ele>0</ele></trkpt><trkpt lat="53.205869" lon="6.516359"><ele>0</ele></trkpt><trkpt lat="53.205823" lon="6.516539"><ele>0</ele></trkpt><trkpt lat="53.205792" lon="6.516687"><ele>0</ele></trkpt><trkpt lat="53.205785" lon="6.51679"><ele>0</ele></trkpt><trkpt lat="53.205794" lon="6.516841"><ele>0</ele></trkpt><trkpt lat="53.20577" lon="6.516885"><ele>0</ele></trkpt><trkpt lat="53.205727" lon="6.516927"><ele>0</ele></trkpt><trkpt lat="53.205573" lon="6.517045"><ele>0</ele></trkpt><trkpt lat="53.2053" lon="6.517252"><ele>0</ele></trkpt><trkpt lat="53.204978" lon="6.517505"><ele>0</ele></trkpt><trkpt lat="53.204955" lon="6.517516"><ele>0</ele></trkpt><trkpt lat="53.204578" lon="6.516832"><ele>0</ele></trkpt><trkpt lat="53.20388" lon="6.515521"><ele>0</ele></trkpt><trkpt lat="53.203295" lon="6.513403"><ele>0</ele></trkpt><trkpt lat="53.20405" lon="6.512824"><ele>0</ele></trkpt><trkpt lat="53.204237" lon="6.51269"><ele>0</ele></trkpt><trkpt lat="53.204372" lon="6.512604"><ele>0</ele></trkpt><trkpt lat="53.204523" lon="6.512551"><ele>0</ele></trkpt><trkpt lat="53.204635" lon="6.512535"><ele>0</ele></trkpt><trkpt lat="53.204571" lon="6.511376"><ele>0</ele></trkpt><trkpt lat="53.204818" lon="6.511381"><ele>0</ele></trkpt><trkpt lat="53.204767" lon="6.511173"><ele>0</ele></trkpt><trkpt lat="53.204478" lon="6.510156"><ele>0</ele></trkpt><trkpt lat="53.204358" lon="6.509706"><ele>0</ele></trkpt><trkpt lat="53.204249" lon="6.509346"><ele>0</ele></trkpt><trkpt lat="53.203485" lon="6.51006"><ele>0</ele></trkpt><trkpt lat="53.202838" lon="6.510685"><ele>0</ele></trkpt><trkpt lat="53.202411" lon="6.511074"><ele>0</ele></trkpt><trkpt lat="53.201728" lon="6.511714"><ele>0</ele></trkpt><trkpt lat="53.201547" lon="6.511923"><ele>0</ele></trkpt><trkpt lat="53.201467" lon="6.51203"><ele>0</ele></trkpt><trkpt lat="53.20143" lon="6.512127"><ele>0</ele></trkpt><trkpt lat="53.20142" lon="6.512242"><ele>0</ele></trkpt><trkpt lat="53.201424" lon="6.512297"><ele>0</ele></trkpt><trkpt lat="53.201457" lon="6.512549"><ele>0</ele></trkpt><trkpt lat="53.201504" lon="6.512809"><ele>0</ele></trkpt><trkpt lat="53.20166" lon="6.513378"><ele>0</ele></trkpt><trkpt lat="53.202318" lon="6.515713"><ele>0</ele></trkpt><trkpt lat="53.20249" lon="6.516314"><ele>0</ele></trkpt><trkpt lat="53.202556" lon="6.516506"><ele>0</ele></trkpt><trkpt lat="53.202582" lon="6.516618"><ele>0</ele></trkpt><trkpt lat="53.202697" lon="6.517031"><ele>0</ele></trkpt><trkpt lat="53.202928" lon="6.517862"><ele>0</ele></trkpt><trkpt lat="53.20298" lon="6.518054"><ele>0</ele></trkpt><trkpt lat="53.203037" lon="6.518256"><ele>0</ele></trkpt><trkpt lat="53.203088" lon="6.518398"><ele>0</ele></trkpt><trkpt lat="53.203119" lon="6.518451"><ele>0</ele></trkpt><trkpt lat="53.203162" lon="6.518508"><ele>0</ele></trkpt><trkpt lat="53.20322" lon="6.51855"><ele>0</ele></trkpt><trkpt lat="53.203283" lon="6.518575"><ele>0</ele></trkpt><trkpt lat="53.203343" lon="6.518581"><ele>0</ele></trkpt><trkpt lat="53.203407" lon="6.51857"><ele>0</ele></trkpt><trkpt lat="53.203687" lon="6.518421"><ele>0</ele></trkpt><trkpt lat="53.204056" lon="6.518216"><ele>0</ele></trkpt><trkpt lat="53.204422" lon="6.517996"><ele>0</ele></trkpt><trkpt lat="53.204859" lon="6.517661"><ele>0</ele></trkpt><trkpt lat="53.205292" lon="6.517311"><ele>0</ele></trkpt><trkpt lat="53.205668" lon="6.51701"><ele>0</ele></trkpt><trkpt lat="53.205805" lon="6.516885"><ele>0</ele></trkpt><trkpt lat="53.205817" lon="6.516836"><ele>0</ele></trkpt><trkpt lat="53.205812" lon="6.516753"><ele>0</ele></trkpt><trkpt lat="53.205825" lon="6.516657"><ele>0</ele></trkpt><trkpt lat="53.205873" lon="6.516468"><ele>0</ele></trkpt><trkpt lat="53.205934" lon="6.516261"><ele>0</ele></trkpt><trkpt lat="53.206014" lon="6.516072"><ele>0</ele></trkpt><trkpt lat="53.206098" lon="6.515919"><ele>0</ele></trkpt><trkpt lat="53.206179" lon="6.515797"><ele>0</ele></trkpt><trkpt lat="53.206252" lon="6.515704"><ele>0</ele></trkpt><trkpt lat="53.20636" lon="6.515606"><ele>0</ele></trkpt><trkpt lat="53.206529" lon="6.515498"><ele>0</ele></trkpt><trkpt lat="53.206714" lon="6.515395"><ele>0</ele></trkpt><trkpt lat="53.2069" lon="6.515292"><ele>0</ele></trkpt><trkpt lat="53.207034" lon="6.515194"><ele>0</ele></trkpt><trkpt lat="53.207124" lon="6.515115"><ele>0</ele></trkpt><trkpt lat="53.207227" lon="6.51502"><ele>0</ele></trkpt><trkpt lat="53.207293" lon="6.51496"><ele>0</ele></trkpt><trkpt lat="53.207359" lon="6.514881"><ele>0</ele></trkpt><trkpt lat="53.207475" lon="6.514737"><ele>0</ele></trkpt><trkpt lat="53.207553" lon="6.514628"><ele>0</ele></trkpt><trkpt lat="53.207633" lon="6.514514"><ele>0</ele></trkpt><trkpt lat="53.207695" lon="6.514389"><ele>0</ele></trkpt><trkpt lat="53.207712" lon="6.514337"><ele>0</ele></trkpt><trkpt lat="53.207718" lon="6.514291"><ele>0</ele></trkpt><trkpt lat="53.20771" lon="6.514272"><ele>0</ele></trkpt><trkpt lat="53.207697" lon="6.514292"><ele>0</ele></trkpt></trkseg></trk><trk><name>Finish lopen</name><trkseg><trkpt lat="53.2077181" lon="6.5142908"><ele>0</ele></trkpt><trkpt lat="53.2077214" lon="6.5142379"><ele>0</ele></trkpt><trkpt lat="53.2077327" lon="6.5141891"><ele>0</ele></trkpt><trkpt lat="53.2077656" lon="6.5141924"><ele>0</ele></trkpt><trkpt lat="53.2077905" lon="6.5141871"><ele>0</ele></trkpt><trkpt lat="53.2078194" lon="6.5141441"><ele>0</ele></trkpt><trkpt lat="53.207858" lon="6.5140342"><ele>0</ele></trkpt><trkpt lat="53.2079463" lon="6.513774"><ele>0</ele></trkpt><trkpt lat="53.2080264" lon="6.5135359"><ele>0</ele></trkpt></trkseg></trk><trk><name>Aanloopstrook lopen</name><trkseg><trkpt lat="53.2068151" lon="6.5144266"><ele>0</ele></trkpt><trkpt lat="53.2067507" lon="6.5144754"><ele>0</ele></trkpt><trkpt lat="53.2066736" lon="6.5145344"><ele>0</ele></trkpt><trkpt lat="53.2066222" lon="6.5145639"><ele>0</ele></trkpt><trkpt lat="53.2065659" lon="6.5145961"><ele>0</ele></trkpt><trkpt lat="53.2064904" lon="6.514639"><ele>0</ele></trkpt><trkpt lat="53.2064358" lon="6.5146658"><ele>0</ele></trkpt><trkpt lat="53.2063908" lon="6.514698"><ele>0</ele></trkpt><trkpt lat="53.2063635" lon="6.5147516"><ele>0</ele></trkpt><trkpt lat="53.2063458" lon="6.5148133"><ele>0</ele></trkpt><trkpt lat="53.206333" lon="6.514867"><ele>0</ele></trkpt><trkpt lat="53.2063346" lon="6.5149447"><ele>0</ele></trkpt><trkpt lat="53.2063346" lon="6.5150333"><ele>0</ele></trkpt><trkpt lat="53.2063201" lon="6.5151298"><ele>0</ele></trkpt><trkpt lat="53.206288" lon="6.5152291"><ele>0</ele></trkpt><trkpt lat="53.2062607" lon="6.5152827"><ele>0</ele></trkpt><trkpt lat="53.2062061" lon="6.5153632"><ele>0</ele></trkpt><trkpt lat="53.2061611" lon="6.5154383"><ele>0</ele></trkpt><trkpt lat="53.2060913" lon="6.5155468"><ele>0</ele></trkpt><trkpt lat="53.2059676" lon="6.5157654"><ele>0</ele></trkpt><trkpt lat="53.2058969" lon="6.5159062"><ele>0</ele></trkpt><trkpt lat="53.2058503" lon="6.5160349"><ele>0</ele></trkpt><trkpt lat="53.2058005" lon="6.5161865"><ele>0</ele></trkpt><trkpt lat="53.2057579" lon="6.5163434"><ele>0</ele></trkpt><trkpt lat="53.205729" lon="6.5164949"><ele>0</ele></trkpt><trkpt lat="53.2056929" lon="6.5167055"><ele>0</ele></trkpt><trkpt lat="53.2056752" lon="6.5168088"><ele>0</ele></trkpt><trkpt lat="53.2056693" lon="6.5168841"><ele>0</ele></trkpt><trkpt lat="53.2056428" lon="6.5169579"><ele>0</ele></trkpt><trkpt lat="53.2056099" lon="6.5170021"><ele>0</ele></trkpt><trkpt lat="53.2055729" lon="6.517045"><ele>0</ele></trkpt></trkseg></trk><trk><name>Zwemparcours divisie</name><trkseg><trkpt lat="53.207316" lon="6.513247"><ele>0</ele></trkpt><trkpt lat="53.207301" lon="6.512422"><ele>0</ele></trkpt><trkpt lat="53.207254" lon="6.510295"><ele>0</ele></trkpt><trkpt lat="53.206093" lon="6.510942"><ele>0</ele></trkpt><trkpt lat="53.205426" lon="6.514276"><ele>0</ele></trkpt><trkpt lat="53.205608" lon="6.514528"><ele>0</ele></trkpt><trkpt lat="53.206742" lon="6.51283"><ele>0</ele></trkpt><trkpt lat="53.207301" lon="6.512422"><ele>0</ele></trkpt></trkseg></trk><trk><trkseg><trkpt lat="53.206742" lon="6.51283"><ele>0</ele></trkpt><trkpt lat="53.207004" lon="6.513562"><ele>0</ele></trkpt></trkseg></trk></gpx>