<?xml version="1.0" encoding="UTF-8"?><gpx version="1.1" creator="GVAV Speedman" xmlns="http://www.topografix.com/GPX/1/1"><trk><name>Aanloopstrook fietsen</name><trkseg><trkpt lat="53.207776" lon="6.513222"><ele>0</ele></trkpt><trkpt lat="53.207948" lon="6.509938"><ele>0</ele></trkpt><trkpt lat="53.207948" lon="6.509624"><ele>0</ele></trkpt><trkpt lat="53.207991" lon="6.508764"><ele>0</ele></trkpt><trkpt lat="53.2079658" lon="6.5085711"><ele>0</ele></trkpt><trkpt lat="53.2079807" lon="6.5082281"><ele>0</ele></trkpt><trkpt lat="53.2079949" lon="6.5079227"><ele>0</ele></trkpt><trkpt lat="53.2080197" lon="6.5075205"><ele>0</ele></trkpt><trkpt lat="53.2080291" lon="6.5071779"><ele>0</ele></trkpt><trkpt lat="53.2080204" lon="6.5070618"><ele>0</ele></trkpt><trkpt lat="53.2080027" lon="6.5069388"><ele>0</ele></trkpt><trkpt lat="53.2079741" lon="6.506845"><ele>0</ele></trkpt><trkpt lat="53.2079487" lon="6.5068102"><ele>0</ele></trkpt><trkpt lat="53.2079166" lon="6.5067947"><ele>0</ele></trkpt><trkpt lat="53.2078788" lon="6.5067829"><ele>0</ele></trkpt><trkpt lat="53.2078458" lon="6.5067871"><ele>0</ele></trkpt><trkpt lat="53.2077602" lon="6.5068563"><ele>0</ele></trkpt><trkpt lat="53.2075498" lon="6.5070041"><ele>0</ele></trkpt><trkpt lat="53.2070619" lon="6.5072829"><ele>0</ele></trkpt><trkpt lat="53.206476" lon="6.5076357"><ele>0</ele></trkpt><trkpt lat="53.2059175" lon="6.5079564"><ele>0</ele></trkpt><trkpt lat="53.2055277" lon="6.508168"><ele>0</ele></trkpt><trkpt lat="53.2052382" lon="6.5083321"><ele>0</ele></trkpt><trkpt lat="53.205014" lon="6.5084914"><ele>0</ele></trkpt><trkpt lat="53.2046138" lon="6.5088376"><ele>0</ele></trkpt><trkpt lat="53.2042877" lon="6.5091376"><ele>0</ele></trkpt><trkpt lat="53.2040634" lon="6.5093649"><ele>0</ele></trkpt><trkpt lat="53.2036969" lon="6.5097097"><ele>0</ele></trkpt><trkpt lat="53.2034281" lon="6.5099426"><ele>0</ele></trkpt><trkpt lat="53.203277" lon="6.510018"><ele>0</ele></trkpt><trkpt lat="53.203085" lon="6.510187"><ele>0</ele></trkpt><trkpt lat="53.201891" lon="6.511327"><ele>0</ele></trkpt><trkpt lat="53.20165" lon="6.51156"><ele>0</ele></trkpt><trkpt lat="53.201425" lon="6.511724"><ele>0</ele></trkpt><trkpt lat="53.201372" lon="6.511716"><ele>0</ele></trkpt><trkpt lat="53.201313" lon="6.511689"><ele>0</ele></trkpt><trkpt lat="53.20127" lon="6.511632"><ele>0</ele></trkpt><trkpt lat="53.201229" lon="6.511552"><ele>0</ele></trkpt><trkpt lat="53.201189" lon="6.511428"><ele>0</ele></trkpt><trkpt lat="53.201146" lon="6.511337"><ele>0</ele></trkpt><trkpt lat="53.20109" lon="6.511225"><ele>0</ele></trkpt><trkpt lat="53.201017" lon="6.511139"><ele>0</ele></trkpt><trkpt lat="53.200964" lon="6.511066"><ele>0</ele></trkpt><trkpt lat="53.200873" lon="6.510959"><ele>0</ele></trkpt><trkpt lat="53.200848" lon="6.510876"><ele>0</ele></trkpt><trkpt lat="53.200832" lon="6.51079"><ele>0</ele></trkpt><trkpt lat="53.200837" lon="6.510702"><ele>0</ele></trkpt><trkpt lat="53.200879" lon="6.510498"><ele>0</ele></trkpt><trkpt lat="53.200946" lon="6.510264"><ele>0</ele></trkpt><trkpt lat="53.201088" lon="6.509811"><ele>0</ele></trkpt><trkpt lat="53.201322" lon="6.509017"><ele>0</ele></trkpt><trkpt lat="53.201403" lon="6.508698"><ele>0</ele></trkpt><trkpt lat="53.201483" lon="6.508341"><ele>0</ele></trkpt><trkpt lat="53.201564" lon="6.50774"><ele>0</ele></trkpt><trkpt lat="53.201583" lon="6.507491"><ele>0</ele></trkpt><trkpt lat="53.201641" lon="6.507091"><ele>0</ele></trkpt><trkpt lat="53.201723" lon="6.506697"><ele>0</ele></trkpt><trkpt lat="53.201843" lon="6.506244"><ele>0</ele></trkpt><trkpt lat="53.202167" lon="6.505182"><ele>0</ele></trkpt><trkpt lat="53.202233" lon="6.504974"><ele>0</ele></trkpt><trkpt lat="53.202544" lon="6.503951"><ele>0</ele></trkpt><trkpt lat="53.203238" lon="6.501639"><ele>0</ele></trkpt><trkpt lat="53.203446" lon="6.500845"><ele>0</ele></trkpt><trkpt lat="53.20361" lon="6.500062"><ele>0</ele></trkpt><trkpt lat="53.203729" lon="6.499472"><ele>0</ele></trkpt><trkpt lat="53.20381" lon="6.498989"><ele>0</ele></trkpt><trkpt lat="53.203896" lon="6.498345"><ele>0</ele></trkpt><trkpt lat="53.203971" lon="6.497666"><ele>0</ele></trkpt><trkpt lat="53.204027" lon="6.497008"><ele>0</ele></trkpt><trkpt lat="53.204051" lon="6.496629"><ele>0</ele></trkpt><trkpt lat="53.20408" lon="6.49591"><ele>0</ele></trkpt><trkpt lat="53.204096" lon="6.495549"><ele>0</ele></trkpt><trkpt lat="53.204158" lon="6.494127"><ele>0</ele></trkpt><trkpt lat="53.204192" lon="6.49307"><ele>0</ele></trkpt><trkpt lat="53.20421" lon="6.492548"><ele>0</ele></trkpt><trkpt lat="53.204197" lon="6.492454"><ele>0</ele></trkpt><trkpt lat="53.204197" lon="6.492302"><ele>0</ele></trkpt></trkseg></trk><trk><name>Fietsparcours</name><trkseg><trkpt lat="53.202187" lon="6.505001"><ele>0</ele></trkpt><trkpt lat="53.202362" lon="6.504429"><ele>0</ele></trkpt><trkpt lat="53.202614" lon="6.503627"><ele>0</ele></trkpt><trkpt lat="53.202737" lon="6.503221"><ele>0</ele></trkpt><trkpt lat="53.20286" lon="6.502818"><ele>0</ele></trkpt><trkpt lat="53.202925" lon="6.50258"><ele>0</ele></trkpt><trkpt lat="53.203011" lon="6.502291"><ele>0</ele></trkpt><trkpt lat="53.203178" lon="6.501727"><ele>0</ele></trkpt><trkpt lat="53.203305" lon="6.501276"><ele>0</ele></trkpt><trkpt lat="53.203458" lon="6.500652"><ele>0</ele></trkpt><trkpt lat="53.203526" lon="6.500341"><ele>0</ele></trkpt><trkpt lat="53.203668" lon="6.499634"><ele>0</ele></trkpt><trkpt lat="53.203816" lon="6.498761"><ele>0</ele></trkpt><trkpt lat="53.203901" lon="6.498017"><ele>0</ele></trkpt><trkpt lat="53.204" lon="6.496788"><ele>0</ele></trkpt><trkpt lat="53.204075" lon="6.495294"><ele>0</ele></trkpt><trkpt lat="53.204136" lon="6.493755"><ele>0</ele></trkpt><trkpt lat="53.204146" lon="6.493312"><ele>0</ele></trkpt><trkpt lat="53.204179" lon="6.492655"><ele>0</ele></trkpt><trkpt lat="53.204186" lon="6.492474"><ele>0</ele></trkpt><trkpt lat="53.20424" lon="6.491587"><ele>0</ele></trkpt><trkpt lat="53.204252" lon="6.491452"><ele>0</ele></trkpt><trkpt lat="53.204277" lon="6.491334"><ele>0</ele></trkpt><trkpt lat="53.204319" lon="6.491251"><ele>0</ele></trkpt><trkpt lat="53.204369" lon="6.491202"><ele>0</ele></trkpt><trkpt lat="53.204456" lon="6.491189"><ele>0</ele></trkpt><trkpt lat="53.20457" lon="6.491208"><ele>0</ele></trkpt><trkpt lat="53.205042" lon="6.491256"><ele>0</ele></trkpt><trkpt lat="53.205346" lon="6.491224"><ele>0</ele></trkpt><trkpt lat="53.205665" lon="6.49109"><ele>0</ele></trkpt><trkpt lat="53.206428" lon="6.490674"><ele>0</ele></trkpt><trkpt lat="53.20947" lon="6.488865"><ele>0</ele></trkpt><trkpt lat="53.209524" lon="6.488828"><ele>0</ele></trkpt><trkpt lat="53.209531" lon="6.488762"><ele>0</ele></trkpt><trkpt lat="53.209518" lon="6.48869"><ele>0</ele></trkpt><trkpt lat="53.209108" lon="6.486561"><ele>0</ele></trkpt><trkpt lat="53.209044" lon="6.486376"><ele>0</ele></trkpt><trkpt lat="53.208986" lon="6.48626"><ele>0</ele></trkpt><trkpt lat="53.208925" lon="6.48615"><ele>0</ele></trkpt><trkpt lat="53.208856" lon="6.485987"><ele>0</ele></trkpt><trkpt lat="53.208523" lon="6.484217"><ele>0</ele></trkpt><trkpt lat="53.207872" lon="6.480766"><ele>0</ele></trkpt><trkpt lat="53.207846" lon="6.480612"><ele>0</ele></trkpt><trkpt lat="53.20786" lon="6.480564"><ele>0</ele></trkpt><trkpt lat="53.207926" lon="6.480521"><ele>0</ele></trkpt><trkpt lat="53.209679" lon="6.479582"><ele>0</ele></trkpt><trkpt lat="53.209731" lon="6.479486"><ele>0</ele></trkpt><trkpt lat="53.209737" lon="6.479349"><ele>0</ele></trkpt><trkpt lat="53.209703" lon="6.479215"><ele>0</ele></trkpt><trkpt lat="53.2086497" lon="6.4741209"><ele>0</ele></trkpt><trkpt lat="53.2086221" lon="6.4740681"><ele>0</ele></trkpt><trkpt lat="53.2085927" lon="6.4740421"><ele>0</ele></trkpt><trkpt lat="53.2085655" lon="6.4740278"><ele>0</ele></trkpt><trkpt lat="53.2085336" lon="6.4740205"><ele>0</ele></trkpt><trkpt lat="53.2075601" lon="6.474498"><ele>0</ele></trkpt><trkpt lat="53.2061797" lon="6.4752279"><ele>0</ele></trkpt><trkpt lat="53.206125" lon="6.4753205"><ele>0</ele></trkpt><trkpt lat="53.2060953" lon="6.4753928"><ele>0</ele></trkpt><trkpt lat="53.206097" lon="6.475529"><ele>0</ele></trkpt><trkpt lat="53.206509" lon="6.47785"><ele>0</ele></trkpt><trkpt lat="53.207067" lon="6.480733"><ele>0</ele></trkpt><trkpt lat="53.207113" lon="6.480942"><ele>0</ele></trkpt><trkpt lat="53.20754" lon="6.480706"><ele>0</ele></trkpt><trkpt lat="53.207795" lon="6.480607"><ele>0</ele></trkpt><trkpt lat="53.207824" lon="6.480624"><ele>0</ele></trkpt><trkpt lat="53.207851" lon="6.480765"><ele>0</ele></trkpt><trkpt lat="53.208832" lon="6.485999"><ele>0</ele></trkpt><trkpt lat="53.208904" lon="6.486183"><ele>0</ele></trkpt><trkpt lat="53.208963" lon="6.486284"><ele>0</ele></trkpt><trkpt lat="53.20902" lon="6.486405"><ele>0</ele></trkpt><trkpt lat="53.209084" lon="6.48659"><ele>0</ele></trkpt><trkpt lat="53.209515" lon="6.488785"><ele>0</ele></trkpt><trkpt lat="53.208164" lon="6.489564"><ele>0</ele></trkpt><trkpt lat="53.20733" lon="6.490057"><ele>0</ele></trkpt><trkpt lat="53.206484" lon="6.490588"><ele>0</ele></trkpt><trkpt lat="53.205719" lon="6.491007"><ele>0</ele></trkpt><trkpt lat="53.205351" lon="6.491176"><ele>0</ele></trkpt><trkpt lat="53.205235" lon="6.491197"><ele>0</ele></trkpt><trkpt lat="53.204933" lon="6.491192"><ele>0</ele></trkpt><trkpt lat="53.204411" lon="6.491128"><ele>0</ele></trkpt><trkpt lat="53.20435" lon="6.491144"><ele>0</ele></trkpt><trkpt lat="53.204315" lon="6.491176"><ele>0</ele></trkpt><trkpt lat="53.204284" lon="6.491214"><ele>0</ele></trkpt><trkpt lat="53.204252" lon="6.491264"><ele>0</ele></trkpt><trkpt lat="53.204231" lon="6.491323"><ele>0</ele></trkpt><trkpt lat="53.204218" lon="6.49139"><ele>0</ele></trkpt><trkpt lat="53.204206" lon="6.491468"><ele>0</ele></trkpt><trkpt lat="53.204182" lon="6.492034"><ele>0</ele></trkpt><trkpt lat="53.204127" lon="6.49308"><ele>0</ele></trkpt><trkpt lat="53.204096" lon="6.493957"><ele>0</ele></trkpt><trkpt lat="53.204006" lon="6.496001"><ele>0</ele></trkpt><trkpt lat="53.203968" lon="6.496763"><ele>0</ele></trkpt><trkpt lat="53.203891" lon="6.49779"><ele>0</ele></trkpt><trkpt lat="53.203836" lon="6.498362"><ele>0</ele></trkpt><trkpt lat="53.203768" lon="6.498917"><ele>0</ele></trkpt><trkpt lat="53.203683" lon="6.499382"><ele>0</ele></trkpt><trkpt lat="53.203517" lon="6.500253"><ele>0</ele></trkpt><trkpt lat="53.203432" lon="6.500662"><ele>0</ele></trkpt><trkpt lat="53.203293" lon="6.501221"><ele>0</ele></trkpt><trkpt lat="53.202989" lon="6.50229"><ele>0</ele></trkpt><trkpt lat="53.202673" lon="6.503361"><ele>0</ele></trkpt><trkpt lat="53.201958" lon="6.505646"><ele>0</ele></trkpt><trkpt lat="53.201757" lon="6.506288"><ele>0</ele></trkpt><trkpt lat="53.201637" lon="6.50676"><ele>0</ele></trkpt><trkpt lat="53.201553" lon="6.50721"><ele>0</ele></trkpt><trkpt lat="53.201479" lon="6.5078"><ele>0</ele></trkpt><trkpt lat="53.201454" lon="6.507956"><ele>0</ele></trkpt><trkpt lat="53.201434" lon="6.508056"><ele>0</ele></trkpt><trkpt lat="53.201416" lon="6.508147"><ele>0</ele></trkpt><trkpt lat="53.201412" lon="6.50819"><ele>0</ele></trkpt><trkpt lat="53.201423" lon="6.508216"><ele>0</ele></trkpt><trkpt lat="53.201438" lon="6.508218"><ele>0</ele></trkpt><trkpt lat="53.201453" lon="6.508195"><ele>0</ele></trkpt><trkpt lat="53.201461" lon="6.50816"><ele>0</ele></trkpt><trkpt lat="53.201473" lon="6.508109"><ele>0</ele></trkpt><trkpt lat="53.201493" lon="6.50798"><ele>0</ele></trkpt><trkpt lat="53.201504" lon="6.507878"><ele>0</ele></trkpt><trkpt lat="53.201538" lon="6.507578"><ele>0</ele></trkpt><trkpt lat="53.201567" lon="6.507288"><ele>0</ele></trkpt><trkpt lat="53.201655" lon="6.506835"><ele>0</ele></trkpt><trkpt lat="53.201726" lon="6.506548"><ele>0</ele></trkpt><trkpt lat="53.201862" lon="6.506062"><ele>0</ele></trkpt><trkpt lat="53.202084" lon="6.505325"><ele>0</ele></trkpt><trkpt lat="53.202187" lon="6.505001"><ele>0</ele></trkpt></trkseg></trk><trk><name>Terugkomstrook fietsen</name><trkseg><trkpt lat="53.201416" lon="6.508147"><ele>0</ele></trkpt><trkpt lat="53.2014" lon="6.508247"><ele>0</ele></trkpt><trkpt lat="53.201397" lon="6.508348"><ele>0</ele></trkpt><trkpt lat="53.201378" lon="6.508548"><ele>0</ele></trkpt><trkpt lat="53.201313" lon="6.508814"><ele>0</ele></trkpt><trkpt lat="53.201257" lon="6.509013"><ele>0</ele></trkpt><trkpt lat="53.201218" lon="6.509159"><ele>0</ele></trkpt><trkpt lat="53.201178" lon="6.509315"><ele>0</ele></trkpt><trkpt lat="53.201109" lon="6.509536"><ele>0</ele></trkpt><trkpt lat="53.201036" lon="6.509754"><ele>0</ele></trkpt><trkpt lat="53.200954" lon="6.509971"><ele>0</ele></trkpt><trkpt lat="53.200885" lon="6.510116"><ele>0</ele></trkpt><trkpt lat="53.20079" lon="6.510283"><ele>0</ele></trkpt><trkpt lat="53.200728" lon="6.510425"><ele>0</ele></trkpt><trkpt lat="53.200691" lon="6.510586"><ele>0</ele></trkpt><trkpt lat="53.20068" lon="6.510714"><ele>0</ele></trkpt><trkpt lat="53.200688" lon="6.510816"><ele>0</ele></trkpt><trkpt lat="53.200705" lon="6.510888"><ele>0</ele></trkpt><trkpt lat="53.200715" lon="6.510934"><ele>0</ele></trkpt><trkpt lat="53.200766" lon="6.511005"><ele>0</ele></trkpt><trkpt lat="53.200877" lon="6.511092"><ele>0</ele></trkpt><trkpt lat="53.20097" lon="6.511207"><ele>0</ele></trkpt><trkpt lat="53.201038" lon="6.511288"><ele>0</ele></trkpt><trkpt lat="53.201125" lon="6.511465"><ele>0</ele></trkpt><trkpt lat="53.201189" lon="6.511642"><ele>0</ele></trkpt><trkpt lat="53.201292" lon="6.511791"><ele>0</ele></trkpt><trkpt lat="53.20131" lon="6.511812"><ele>0</ele></trkpt><trkpt lat="53.201368" lon="6.511842"><ele>0</ele></trkpt><trkpt lat="53.2014304" lon="6.5118227"><ele>0</ele></trkpt><trkpt lat="53.2015765" lon="6.51171"><ele>0</ele></trkpt><trkpt lat="53.201725" lon="6.5115784"><ele>0</ele></trkpt><trkpt lat="53.2023624" lon="6.5109917"><ele>0</ele></trkpt><trkpt lat="53.2028055" lon="6.5105673"><ele>0</ele></trkpt><trkpt lat="53.2031187" lon="6.5102367"><ele>0</ele></trkpt><trkpt lat="53.2033001" lon="6.5100875"><ele>0</ele></trkpt><trkpt lat="53.203471" lon="6.5100198"><ele>0</ele></trkpt><trkpt lat="53.2035622" lon="6.5099334"><ele>0</ele></trkpt><trkpt lat="53.2040089" lon="6.5094816"><ele>0</ele></trkpt><trkpt lat="53.2041509" lon="6.5093701"><ele>0</ele></trkpt><trkpt lat="53.2042784" lon="6.509256"><ele>0</ele></trkpt><trkpt lat="53.2046135" lon="6.5089093"><ele>0</ele></trkpt><trkpt lat="53.204984" lon="6.5086081"><ele>0</ele></trkpt><trkpt lat="53.2053244" lon="6.5083845"><ele>0</ele></trkpt><trkpt lat="53.205974" lon="6.5079856"><ele>0</ele></trkpt><trkpt lat="53.2065421" lon="6.5076612"><ele>0</ele></trkpt><trkpt lat="53.2068354" lon="6.507523"><ele>0</ele></trkpt><trkpt lat="53.2073927" lon="6.5071872"><ele>0</ele></trkpt><trkpt lat="53.2076729" lon="6.5070136"><ele>0</ele></trkpt><trkpt lat="53.2078141" lon="6.5069077"><ele>0</ele></trkpt><trkpt lat="53.2078794" lon="6.5068769"><ele>0</ele></trkpt><trkpt lat="53.2079181" lon="6.5068789"><ele>0</ele></trkpt><trkpt lat="53.2079431" lon="6.5069064"><ele>0</ele></trkpt><trkpt lat="53.2079772" lon="6.5069681"><ele>0</ele></trkpt><trkpt lat="53.208004" lon="6.507103"><ele>0</ele></trkpt><trkpt lat="53.208009" lon="6.507279"><ele>0</ele></trkpt><trkpt lat="53.207984" lon="6.507822"><ele>0</ele></trkpt><trkpt lat="53.207937" lon="6.508697"><ele>0</ele></trkpt><trkpt lat="53.207937" lon="6.508858"><ele>0</ele></trkpt><trkpt lat="53.207947" lon="6.508989"><ele>0</ele></trkpt><trkpt lat="53.207958" lon="6.509136"><ele>0</ele></trkpt><trkpt lat="53.207933" lon="6.509589"><ele>0</ele></trkpt><trkpt lat="53.207933" lon="6.509763"><ele>0</ele></trkpt><trkpt lat="53.207932" lon="6.509947"><ele>0</ele></trkpt><trkpt lat="53.207762" lon="6.513224"><ele>0</ele></trkpt></trkseg></trk></gpx>